CCSDS_OEM_VERS = 1.0
CREATION_DATE  = 2017-05-11T11:32:45
ORIGINATOR     = GMAT USER

META_START
OBJECT_NAME          = MOPSSat_alt_35785_km_RAAN_180_036
OBJECT_ID            = SatId
CENTER_NAME          = Earth
REF_FRAME            = EME2000
TIME_SYSTEM          = UTC
START_TIME           = 2017-01-01T00:00:00.000
USEABLE_START_TIME   = 2017-01-01T00:00:00.000
USEABLE_STOP_TIME    = 2017-01-02T00:00:00.000
STOP_TIME            = 2017-01-02T00:00:00.000
INTERPOLATION        = Lagrange
INTERPOLATION_DEGREE = 7 
META_STOP


                                                                                   

2017-01-01T07:47:30.000   1.927379091035400e+04  -3.749169957053224e+04   6.541330738965642e+02   2.734817227065447e+00   1.405527745109755e+00  -2.458614676052764e-02
2017-01-01T07:47:40.000   1.930113395414624e+04  -3.747763432405054e+04   6.538870382388609e+02   2.733791395646753e+00   1.407521481564045e+00  -2.462098356249859e-02
2017-01-01T07:47:50.000   1.932846673238029e+04  -3.746354914393238e+04   6.536406542783218e+02   2.732764110096632e+00   1.409514469378178e+00  -2.465580727476367e-02
2017-01-01T07:48:00.000   1.935578923073275e+04  -3.744944403755824e+04   6.533939221439912e+02   2.731735370953452e+00   1.411506707507426e+00  -2.469061787903788e-02
2017-01-01T07:48:10.000   1.938310143495508e+04  -3.743531901228320e+04   6.531468419644696e+02   2.730705178753727e+00   1.413498194912519e+00  -2.472541535713154e-02
2017-01-01T07:48:20.000   1.941040333023496e+04  -3.742117407576714e+04   6.528994138736889e+02   2.729673534056202e+00   1.415488930513082e+00  -2.476019969013667e-02
2017-01-01T07:48:30.000   1.943769490183499e+04  -3.740700923564471e+04   6.526516380051388e+02   2.728640437417783e+00   1.417478913234200e+00  -2.479497085924081e-02
2017-01-01T07:48:40.000   1.946497613492777e+04  -3.739282449961033e+04   6.524035144933565e+02   2.727605889399737e+00   1.419468141994398e+00  -2.482972884551680e-02
2017-01-01T07:48:50.000   1.949224701503270e+04  -3.737861987519394e+04   6.521550434700010e+02   2.726569890551336e+00   1.421456615737485e+00  -2.486447363047925e-02
2017-01-01T07:49:00.000   1.951950752765530e+04  -3.736439536994572e+04   6.519062250670853e+02   2.725532441423323e+00   1.423444333406263e+00  -2.489920519562519e-02
2017-01-01T07:49:10.000   1.954675765837046e+04  -3.735015099139345e+04   6.516570594162310e+02   2.724493542564816e+00   1.425431293948588e+00  -2.493392352253999e-02
2017-01-01T07:49:20.000   1.957399739278958e+04  -3.733588674705796e+04   6.514075466489386e+02   2.723453194524425e+00   1.427417496314982e+00  -2.496862859285550e-02
2017-01-01T07:49:30.000   1.960122671654594e+04  -3.732160264446219e+04   6.511576868967452e+02   2.722411397850910e+00   1.429402939457559e+00  -2.500332038823148e-02
2017-01-01T07:49:40.000   1.962844561526208e+04  -3.730729869114823e+04   6.509074802915229e+02   2.721368153094434e+00   1.431387622327654e+00  -2.503799889031402e-02
2017-01-01T07:49:50.000   1.965565407453400e+04  -3.729297489468425e+04   6.506569269656002e+02   2.720323460807060e+00   1.433371543874663e+00  -2.507266408071534e-02
2017-01-01T07:50:00.000   1.968285207989985e+04  -3.727863126268263e+04   6.504060270520796e+02   2.719277321544077e+00   1.435354703043767e+00  -2.510731594097401e-02
2017-01-01T07:50:10.000   1.971003961692227e+04  -3.726426780275594e+04   6.501547806840658e+02   2.718229735860788e+00   1.437337098781934e+00  -2.514195445265976e-02
2017-01-01T07:50:20.000   1.973721667083120e+04  -3.724988452270806e+04   6.499031879980109e+02   2.717180704326450e+00   1.439318730011867e+00  -2.517657959691843e-02
2017-01-01T07:50:30.000   1.976438322695692e+04  -3.723548143030291e+04   6.496512491296687e+02   2.716130227507411e+00   1.441299595663595e+00  -2.521119135502377e-02
2017-01-01T07:50:40.000   1.979153927056900e+04  -3.722105853335030e+04   6.493989642155940e+02   2.715078305973357e+00   1.443279694662711e+00  -2.524578970817211e-02
2017-01-01T07:50:50.000   1.981868478750099e+04  -3.720661583937429e+04   6.491463333873447e+02   2.714024940273140e+00   1.445259025975938e+00  -2.528037463827832e-02
2017-01-01T07:51:00.000   1.984581976352716e+04  -3.719215335594377e+04   6.488933567772631e+02   2.712970130958882e+00   1.447237588565673e+00  -2.531494612718178e-02
2017-01-01T07:51:10.000   1.987294418450393e+04  -3.717767109059791e+04   6.486400345171706e+02   2.711913878580539e+00   1.449215381400308e+00  -2.534950415682656e-02
2017-01-01T07:51:20.000   1.990005803601718e+04  -3.716316905103097e+04   6.483863667416030e+02   2.710856183699377e+00   1.451192403428500e+00  -2.538404870881191e-02
2017-01-01T07:51:30.000   1.992716130364446e+04  -3.714864724495589e+04   6.481323535854220e+02   2.709797046878025e+00   1.453168653598307e+00  -2.541857976472661e-02
2017-01-01T07:51:40.000   1.995425397295449e+04  -3.713410568010315e+04   6.478779951837963e+02   2.708736468680395e+00   1.455144130857142e+00  -2.545309730614813e-02
2017-01-01T07:51:50.000   1.998133602924804e+04  -3.711954436436322e+04   6.476232916746936e+02   2.707674449682066e+00   1.457118834132877e+00  -2.548760131431256e-02
2017-01-01T07:52:00.000   2.000840745790753e+04  -3.710496330559579e+04   6.473682431955427e+02   2.706610990456371e+00   1.459092762359340e+00  -2.552209177056002e-02
2017-01-01T07:52:10.000   2.003546824425908e+04  -3.709036251170449e+04   6.471128498845422e+02   2.705546091579855e+00   1.461065914466256e+00  -2.555656865615888e-02
2017-01-01T07:52:20.000   2.006251837418332e+04  -3.707574199030764e+04   6.468571118748988e+02   2.704479753608247e+00   1.463038289423778e+00  -2.559103195308402e-02
2017-01-01T07:52:30.000   2.008955783350451e+04  -3.706110174906733e+04   6.466010293005858e+02   2.703411977100473e+00   1.465009886197954e+00  -2.562548164323846e-02
2017-01-01T07:52:40.000   2.011658660812888e+04  -3.704644179561541e+04   6.463446022950475e+02   2.702342762613258e+00   1.466980703760806e+00  -2.565991770862970e-02
2017-01-01T07:52:50.000   2.014360468369312e+04  -3.703176213774061e+04   6.460878309944726e+02   2.701272110714763e+00   1.468950741064703e+00  -2.569434013092176e-02
2017-01-01T07:53:00.000   2.017061204582574e+04  -3.701706278325038e+04   6.458307155353766e+02   2.700200021974518e+00   1.470919997061419e+00  -2.572874889176834e-02
2017-01-01T07:53:10.000   2.019760868014652e+04  -3.700234373996975e+04   6.455732560545841e+02   2.699126496963337e+00   1.472888470702090e+00  -2.576314397281193e-02
2017-01-01T07:53:20.000   2.022459457200836e+04  -3.698760501588551e+04   6.453154526917480e+02   2.698051536263832e+00   1.474856160918394e+00  -2.579752535535504e-02
2017-01-01T07:53:30.000   2.025156970684557e+04  -3.697284661895315e+04   6.450573055859736e+02   2.696975140456328e+00   1.476823066647947e+00  -2.583189302080387e-02
2017-01-01T07:53:40.000   2.027853407003390e+04  -3.695806855717392e+04   6.447988148771672e+02   2.695897310124496e+00   1.478789186824089e+00  -2.586624695049002e-02
2017-01-01T07:53:50.000   2.030548764750921e+04  -3.694327083825585e+04   6.445399807001077e+02   2.694818045830621e+00   1.480754520421010e+00  -2.590058712645876e-02
2017-01-01T07:54:00.000   2.033243042514717e+04  -3.692845346995353e+04   6.442808031903855e+02   2.693737348140377e+00   1.482719066408504e+00  -2.593491353067860e-02
2017-01-01T07:54:10.000   2.035936238892349e+04  -3.691361645998049e+04   6.440212824828764e+02   2.692655217616453e+00   1.484682823763662e+00  -2.596922614524550e-02
2017-01-01T07:54:20.000   2.038628352448263e+04  -3.689875981624396e+04   6.437614187158417e+02   2.691571654835662e+00   1.486645791439424e+00  -2.600352495183347e-02
2017-01-01T07:54:30.000   2.041319381749397e+04  -3.688388354665159e+04   6.435012120275511e+02   2.690486660374845e+00   1.488607968390543e+00  -2.603780993214816e-02
2017-01-01T07:54:40.000   2.044009325357219e+04  -3.686898765915434e+04   6.432406625570321e+02   2.689400234814010e+00   1.490569353567790e+00  -2.607208106782563e-02
2017-01-01T07:54:50.000   2.046698181829970e+04  -3.685407216173622e+04   6.429797704438907e+02   2.688312378735574e+00   1.492529945919577e+00  -2.610633834046077e-02
2017-01-01T07:55:00.000   2.049385949725267e+04  -3.683913706239819e+04   6.427185358280284e+02   2.687223092723185e+00   1.494489744393866e+00  -2.614058173164054e-02
2017-01-01T07:55:10.000   2.052072627601092e+04  -3.682418236915290e+04   6.424569588495530e+02   2.686132377361353e+00   1.496448747938883e+00  -2.617481122295654e-02
2017-01-01T07:55:20.000   2.054758214025429e+04  -3.680920808997193e+04   6.421950396478518e+02   2.685040233231585e+00   1.498406955510148e+00  -2.620902679612783e-02
2017-01-01T07:55:30.000   2.057442707569818e+04  -3.679421423282054e+04   6.419327783622032e+02   2.683946660914934e+00   1.500364366065774e+00  -2.624322843291872e-02
2017-01-01T07:55:40.000   2.060126106809367e+04  -3.677920080565784e+04   6.416701751317785e+02   2.682851660992007e+00   1.502320978566476e+00  -2.627741611513902e-02
2017-01-01T07:55:50.000   2.062808410329102e+04  -3.676416781640038e+04   6.414072300950036e+02   2.681755234040299e+00   1.504276791980202e+00  -2.631158982472488e-02
2017-01-01T07:56:00.000   2.065489616714410e+04  -3.674911527297620e+04   6.411439433905060e+02   2.680657380638151e+00   1.506231805275160e+00  -2.634574954361707e-02
2017-01-01T07:56:10.000   2.068169724550078e+04  -3.673404318333057e+04   6.408803151572145e+02   2.679558101365157e+00   1.508186017419124e+00  -2.637989525374870e-02
2017-01-01T07:56:20.000   2.070848732417554e+04  -3.671895155543967e+04   6.406163455345988e+02   2.678457396803172e+00   1.510139427377434e+00  -2.641402693701037e-02
2017-01-01T07:56:30.000   2.073526638892893e+04  -3.670384039732414e+04   6.403520346629072e+02   2.677355267537288e+00   1.512092034111497e+00  -2.644814457522390e-02
